{
  "type": "FeatureCollection",
  "features": [
    {
      "type": "Feature",
      "properties": {
        "norad_id": 43058,
        "name": "GSAT0218 (GALILEO 22)",
        "group": "gnss",
        "lat": 3.7055121632994115,
        "lon": -130.63896327984088,
        "alt_km": 23217.63597216549,
        "timestamp": "2025-12-07T22:37:43.322189+00:00",
        "meta_object_name": "GSAT0218 (GALILEO 22)",
        "meta_object_id": "2017-079D",
        "meta_epoch": "2025-12-06T18:17:46.482720",
        "meta_mean_motion": 1.70473862,
        "meta_eccentricity": 0.00028449,
        "meta_inclination": 55.1307,
        "meta_ra_of_asc_node": 226.7982,
        "meta_arg_of_pericenter": 305.5375,
        "meta_mean_anomaly": 54.5328,
        "meta_ephemeris_type": 0,
        "meta_classification_type": "U",
        "meta_norad_cat_id": 43058,
        "meta_element_set_no": 999,
        "meta_rev_at_epoch": 4973,
        "meta_bstar": 0,
        "meta_mean_motion_dot": 2.9e-07,
        "meta_mean_motion_ddot": 0,
        "tle_line1": "1 43058U 17079D   25340.76234355  .00000029  00000+0  00000+0 0  9992",
        "tle_line2": "2 43058  55.1307 226.7982 0002844 305.5375  54.5328  1.70473862 49733"
      },
      "geometry": {
        "type": "Point",
        "coordinates": [
          -130.63896327984088,
          3.7055121632994115
        ]
      }
    },
    {
      "type": "Feature",
      "properties": {
        "norad_id": 43107,
        "name": "BEIDOU-3 M7 (C27)",
        "group": "gnss",
        "lat": -8.774026617420729,
        "lon": 135.28104672633486,
        "alt_km": 21533.11792720491,
        "timestamp": "2025-12-07T22:37:43.322201+00:00",
        "meta_object_name": "BEIDOU-3 M7 (C27)",
        "meta_object_id": "2018-003A",
        "meta_epoch": "2025-12-05T12:15:18.978048",
        "meta_mean_motion": 1.86232243,
        "meta_eccentricity": 0.00026626,
        "meta_inclination": 54.5032,
        "meta_ra_of_asc_node": 309.0664,
        "meta_arg_of_pericenter": 69.7812,
        "meta_mean_anomaly": 290.2304,
        "meta_ephemeris_type": 0,
        "meta_classification_type": "U",
        "meta_norad_cat_id": 43107,
        "meta_element_set_no": 999,
        "meta_rev_at_epoch": 5374,
        "meta_bstar": 0,
        "meta_mean_motion_dot": -7.1e-07,
        "meta_mean_motion_ddot": 0,
        "tle_line1": "1 43107U 18003A   25339.51063632 -.00000071  00000+0  00000+0 0  9992",
        "tle_line2": "2 43107  54.5032 309.0664 0002662  69.7812 290.2304  1.86232243 53743"
      },
      "geometry": {
        "type": "Point",
        "coordinates": [
          135.28104672633486,
          -8.774026617420729
        ]
      }
    },
    {
      "type": "Feature",
      "properties": {
        "norad_id": 43108,
        "name": "BEIDOU-3 M8 (C28)",
        "group": "gnss",
        "lat": -36.95784869463709,
        "lon": 161.4091932550026,
        "alt_km": 21523.5083309322,
        "timestamp": "2025-12-07T22:37:43.322216+00:00",
        "meta_object_name": "BEIDOU-3 M8 (C28)",
        "meta_object_id": "2018-003B",
        "meta_epoch": "2025-12-05T23:49:06.243168",
        "meta_mean_motion": 1.86230755,
        "meta_eccentricity": 0.00047661,
        "meta_inclination": 54.4957,
        "meta_ra_of_asc_node": 309.0324,
        "meta_arg_of_pericenter": 274.7089,
        "meta_mean_anomaly": 85.2198,
        "meta_ephemeris_type": 0,
        "meta_classification_type": "U",
        "meta_norad_cat_id": 43108,
        "meta_element_set_no": 999,
        "meta_rev_at_epoch": 5376,
        "meta_bstar": 0,
        "meta_mean_motion_dot": -7.1e-07,
        "meta_mean_motion_ddot": 0,
        "tle_line1": "1 43108U 18003B   25339.99243337 -.00000071  00000+0  00000+0 0  9997",
        "tle_line2": "2 43108  54.4957 309.0324 0004766 274.7089  85.2198  1.86230755 53764"
      },
      "geometry": {
        "type": "Point",
        "coordinates": [
          161.4091932550026,
          -36.95784869463709
        ]
      }
    },
    {
      "type": "Feature",
      "properties": {
        "norad_id": 43207,
        "name": "BEIDOU-3 M4 (C22)",
        "group": "gnss",
        "lat": -50.96370400141424,
        "lon": 14.771325292297629,
        "alt_km": 21532.518141869037,
        "timestamp": "2025-12-07T22:37:43.322244+00:00",
        "meta_object_name": "BEIDOU-3 M4 (C22)",
        "meta_object_id": "2018-018A",
        "meta_epoch": "2025-12-02T03:19:43.852800",
        "meta_mean_motion": 1.86230706,
        "meta_eccentricity": 0.00040749,
        "meta_inclination": 56.4768,
        "meta_ra_of_asc_node": 69.6557,
        "meta_arg_of_pericenter": 15.1369,
        "meta_mean_anomaly": 344.8773,
        "meta_ephemeris_type": 0,
        "meta_classification_type": "U",
        "meta_norad_cat_id": 43207,
        "meta_element_set_no": 999,
        "meta_rev_at_epoch": 5307,
        "meta_bstar": 0,
        "meta_mean_motion_dot": -4.5e-07,
        "meta_mean_motion_ddot": 0,
        "tle_line1": "1 43207U 18018A   25336.13870200 -.00000045  00000+0  00000+0 0  9992",
        "tle_line2": "2 43207  56.4768  69.6557 0004074  15.1369 344.8773  1.86230706 53076"
      },
      "geometry": {
        "type": "Point",
        "coordinates": [
          14.771325292297629,
          -50.96370400141424
        ]
      }
    },
    {
      "type": "Feature",
      "properties": {
        "norad_id": 43208,
        "name": "BEIDOU-3 M3 (C21)",
        "group": "gnss",
        "lat": -49.978246411683706,
        "lon": -58.51699078059517,
        "alt_km": 21527.94879152043,
        "timestamp": "2025-12-07T22:37:43.322264+00:00",
        "meta_object_name": "BEIDOU-3 M3 (C21)",
        "meta_object_id": "2018-018B",
        "meta_epoch": "2025-12-03T06:41:57.693408",
        "meta_mean_motion": 1.86230862,
        "meta_eccentricity": 0.0006282,
        "meta_inclination": 56.4772,
        "meta_ra_of_asc_node": 69.6218,
        "meta_arg_of_pericenter": 317.5873,
        "meta_mean_anomaly": 42.3668,
        "meta_ephemeris_type": 0,
        "meta_classification_type": "U",
        "meta_norad_cat_id": 43208,
        "meta_element_set_no": 999,
        "meta_rev_at_epoch": 5309,
        "meta_bstar": 0,
        "meta_mean_motion_dot": -4.9e-07,
        "meta_mean_motion_ddot": 0,
        "tle_line1": "1 43208U 18018B   25337.27913997 -.00000049  00000+0  00000+0 0  9994",
        "tle_line2": "2 43208  56.4772  69.6218 0006282 317.5873  42.3668  1.86230862 53096"
      },
      "geometry": {
        "type": "Point",
        "coordinates": [
          -58.51699078059517,
          -49.978246411683706
        ]
      }
    },
    {
      "type": "Feature",
      "properties": {
        "norad_id": 43245,
        "name": "BEIDOU-3 M9 (C29)",
        "group": "gnss",
        "lat": 52.69462248094211,
        "lon": 56.465581437882626,
        "alt_km": 21526.728584357075,
        "timestamp": "2025-12-07T22:37:43.322282+00:00",
        "meta_object_name": "BEIDOU-3 M9 (C29)",
        "meta_object_id": "2018-029A",
        "meta_epoch": "2025-12-07T06:05:41.929728",
        "meta_mean_motion": 1.8622789,
        "meta_eccentricity": 0.00016353,
        "meta_inclination": 54.3707,
        "meta_ra_of_asc_node": 306.6587,
        "meta_arg_of_pericenter": 276.8895,
        "meta_mean_anomaly": 83.077,
        "meta_ephemeris_type": 0,
        "meta_classification_type": "U",
        "meta_norad_cat_id": 43245,
        "meta_element_set_no": 999,
        "meta_rev_at_epoch": 5232,
        "meta_bstar": 0,
        "meta_mean_motion_dot": -7e-07,
        "meta_mean_motion_ddot": 0,
        "tle_line1": "1 43245U 18029A   25341.25395752 -.00000070  00000+0  00000+0 0  9997",
        "tle_line2": "2 43245  54.3707 306.6587 0001635 276.8895  83.0770  1.86227890 52321"
      },
      "geometry": {
        "type": "Point",
        "coordinates": [
          56.465581437882626,
          52.69462248094211
        ]
      }
    },
    {
      "type": "Feature",
      "properties": {
        "norad_id": 43246,
        "name": "BEIDOU-3 M10 (C30)",
        "group": "gnss",
        "lat": 27.535633597840445,
        "lon": 104.69853426567657,
        "alt_km": 21534.150090359246,
        "timestamp": "2025-12-07T22:37:43.322304+00:00",
        "meta_object_name": "BEIDOU-3 M10 (C30)",
        "meta_object_id": "2018-029B",
        "meta_epoch": "2025-12-06T15:39:16.557408",
        "meta_mean_motion": 1.86228888,
        "meta_eccentricity": 0.00040513,
        "meta_inclination": 54.3688,
        "meta_ra_of_asc_node": 306.7073,
        "meta_arg_of_pericenter": 0.3852,
        "meta_mean_anomaly": 359.5988,
        "meta_ephemeris_type": 0,
        "meta_classification_type": "U",
        "meta_norad_cat_id": 43246,
        "meta_element_set_no": 999,
        "meta_rev_at_epoch": 5229,
        "meta_bstar": 0,
        "meta_mean_motion_dot": -6.9e-07,
        "meta_mean_motion_ddot": 0,
        "tle_line1": "1 43246U 18029B   25340.65227497 -.00000069  00000+0  00000+0 0  9999",
        "tle_line2": "2 43246  54.3688 306.7073 0004051   0.3852 359.5988  1.86228888 52295"
      },
      "geometry": {
        "type": "Point",
        "coordinates": [
          104.69853426567657,
          27.535633597840445
        ]
      }
    }
  ]
}